GLOBALSTAR M057 [-]     
1 25943U 99058A   23269.34380824 -.00000053  00000+0  36688-3 0  9990
2 25943  52.0005 335.6061 0003029 151.7063 208.3952 12.24772223 89758
GLOBALSTAR M031 [-]     
1 25946U 99058D   23269.61650624 -.00000154  00000+0 -64337-3 0  9996
2 25946  51.9969  58.4398 0001426  10.3928  71.2624 12.15996548 87951
GLOBALSTAR M039 [-]     
1 25961U 99062A   23269.51010048 -.00000091  00000+0  72057-4 0  9995
2 25961  51.9870  26.4920 0003103  45.3098 314.8021 12.62270611100697
GLOBALSTAR M034 [-]     
1 25962U 99062B   23269.01462020 -.00000079  00000+0  29540-4 0  9997
2 25962  51.9859 209.4257 0013948 293.4870 145.9186 11.79415299 64035
GLOBALSTAR M029 [-]     
1 25963U 99062C   23269.58552868 -.00000067  00000+0  24033-3 0  9998
2 25963  51.9838 358.9806 0002135 329.5223 136.5496 11.99867615 93545
GLOBALSTAR M061 [-]     
1 25964U 99062D   23269.63439255 -.00000073  00000+0  11372-3 0  9998
2 25964  51.9825  23.5081 0005738 216.4615 248.1821 11.76750075 47359
